[{"OBJECT_NAME":"STARLINK-6254","OBJECT_ID":"2023-088AU","EPOCH":"2026-03-09T22:00:01.999584","MEAN_MOTION":15.05993771,"ECCENTRICITY":0.00023419,"INCLINATION":43.0003,"RA_OF_ASC_NODE":93.1369,"ARG_OF_PERICENTER":281.6589,"MEAN_ANOMALY":124.3021,"EPHEMERIS_TYPE":0,"CLASSIFICATION_TYPE":"U","NORAD_CAT_ID":57090,"ELEMENT_SET_NO":999,"REV_AT_EPOCH":578,"BSTAR":0.0062391158,"MEAN_MOTION_DOT":0.00093477,"MEAN_MOTION_DDOT":0},{"OBJECT_NAME":"OBJECT D","OBJECT_ID":"2025-292D","EPOCH":"2026-03-09T21:45:32.907168","MEAN_MOTION":15.05344615,"ECCENTRICITY":0.00138692,"INCLINATION":97.6365,"RA_OF_ASC_NODE":145.5948,"ARG_OF_PERICENTER":343.7291,"MEAN_ANOMALY":16.3488,"EPHEMERIS_TYPE":0,"CLASSIFICATION_TYPE":"U","NORAD_CAT_ID":66996,"ELEMENT_SET_NO":999,"REV_AT_EPOCH":1350,"BSTAR":0.00030674408,"MEAN_MOTION_DOT":4.34e-5,"MEAN_MOTION_DDOT":0}]
